start=new Date('2022-02-22T00:00:00.000Z').valueOf();
sats=[{"RCS_SIZE":"LARGE","EPOCH":"2022-02-21T20:45:11.668032","PERIOD":"95.593","MEAN_MOTION":"15.06392150","RA_OF_ASC_NODE":"221.3432","MEAN_MOTION_DOT":"-0.00001697","MEAN_ELEMENT_THEORY":"SGP4","INCLINATION":"53.0545","FILE":"3312023","CENTER_NAME":"EARTH","COUNTRY_CODE":"US","TLE_LINE2":"2 47655  53.0545 221.3432 0001598  74.2616 285.8550 15.06392150 57396","ELEMENT_SET_NO":"999","LAUNCH_DATE":"2021-02-16","REV_AT_EPOCH":"5739","OBJECT_NAME":"STARLINK-2039","SEMIMAJOR_AXIS":"6925.373","OBJECT_ID":"2021-012AM","TIME_SYSTEM":"UTC","MEAN_ANOMALY":"285.8550","GP_ID":"196571487","ECCENTRICITY":"0.00015980","MEAN_MOTION_DDOT":"0.0000000000000","PERIAPSIS":"546.131","REF_FRAME":"TEME","OBJECT_TYPE":"PAYLOAD","ARG_OF_PERICENTER":"74.2616","SITE":"AFETR","TLE_LINE1":"1 47655U 21012AM  22052.86471838 -.00001697  00000-0 -95077-4 0  9996","NORAD_CAT_ID":"47655","DECAY_DATE":null,"CLASSIFICATION_TYPE":"U","BSTAR":"-0.00009507700000","APOAPSIS":"548.344","EPHEMERIS_TYPE":"0"},{"FILE":"3312023","INCLINATION":"53.0542","MEAN_ELEMENT_THEORY":"SGP4","MEAN_MOTION_DOT":"0.00002150","RA_OF_ASC_NODE":"201.2661","TLE_LINE2":"2 47656  53.0542 201.2661 0001771  64.4948 295.6224 15.06401234 57679","COUNTRY_CODE":"US","CENTER_NAME":"EARTH","RCS_SIZE":"LARGE","MEAN_MOTION":"15.06401234","EPOCH":"2022-02-21T21:09:04.540320","PERIOD":"95.592","REF_FRAME":"TEME","OBJECT_TYPE":"PAYLOAD","PERIAPSIS":"545.983","MEAN_MOTION_DDOT":"0.0000000000000","ECCENTRICITY":"0.00017710","EPHEMERIS_TYPE":"0","APOAPSIS":"548.436","CLASSIFICATION_TYPE":"U","BSTAR":"0.00016316000000","DECAY_DATE":null,"NORAD_CAT_ID":"47656","SITE":"AFETR","TLE_LINE1":"1 47656U 21012AN  22052.88130255  .00002150  00000-0  16316-3 0  9995","ARG_OF_PERICENTER":"64.4948","MEAN_ANOMALY":"295.6224","OBJECT_ID":"2021-012AN","TIME_SYSTEM":"UTC","SEMIMAJOR_AXIS":"6925.345","REV_AT_EPOCH":"5767","OBJECT_NAME":"STARLINK-2040","LAUNCH_DATE":"2021-02-16","ELEMENT_SET_NO":"999","GP_ID":"196571736"},{"FILE":"3312023","INCLINATION":"53.0546","MEAN_ELEMENT_THEORY":"SGP4","MEAN_MOTION_DOT":"0.00000542","RA_OF_ASC_NODE":"221.2527","TLE_LINE2":"2 47657  53.0546 221.2527 0001508  78.6989 281.4170 15.06403024 57398","CENTER_NAME":"EARTH","COUNTRY_CODE":"US","RCS_SIZE":"LARGE","MEAN_MOTION":"15.06403024","PERIOD":"95.592","EPOCH":"2022-02-21T21:17:01.494240","OBJECT_TYPE":"PAYLOAD","REF_FRAME":"TEME","PERIAPSIS":"546.160","MEAN_MOTION_DDOT":"0.0000000000000","ECCENTRICITY":"0.00015080","EPHEMERIS_TYPE":"0","APOAPSIS":"548.249","CLASSIFICATION_TYPE":"U","BSTAR":"0.00005524900000","NORAD_CAT_ID":"47657","DECAY_DATE":null,"TLE_LINE1":"1 47657U 21012AP  22052.88682285  .00000542  00000-0  55249-4 0  9993","SITE":"AFETR","ARG_OF_PERICENTER":"78.6989","MEAN_ANOMALY":"281.4170","OBJECT_ID":"2021-012AP","TIME_SYSTEM":"UTC","SEMIMAJOR_AXIS":"6925.339","REV_AT_EPOCH":"5739","OBJECT_NAME":"STARLINK-2041","LAUNCH_DATE":"2021-02-16","ELEMENT_SET_NO":"999","GP_ID":"196572986"},{"OBJECT_ID":"2021-012AQ","TIME_SYSTEM":"UTC","SEMIMAJOR_AXIS":"6925.328","MEAN_ANOMALY":"283.9071","ELEMENT_SET_NO":"999","REV_AT_EPOCH":"5741","OBJECT_NAME":"STARLINK-2042","LAUNCH_DATE":"2021-02-16","GP_ID":"196573241","PERIAPSIS":"546.141","OBJECT_TYPE":"PAYLOAD","REF_FRAME":"TEME","ECCENTRICITY":"0.00015200","MEAN_MOTION_DDOT":"0.0000000000000","BSTAR":"0.00002739500000","CLASSIFICATION_TYPE":"U","DECAY_DATE":null,"NORAD_CAT_ID":"47658","APOAPSIS":"548.246","EPHEMERIS_TYPE":"0","ARG_OF_PERICENTER":"76.2087","TLE_LINE1":"1 47658U 21012AQ  22052.87945217  .00000127  00000-0  27395-4 0  9990","SITE":"AFETR","RCS_SIZE":"LARGE","MEAN_MOTION":"15.06406547","PERIOD":"95.592","EPOCH":"2022-02-21T21:06:24.667488","MEAN_ELEMENT_THEORY":"SGP4","FILE":"3312023","INCLINATION":"53.0538","MEAN_MOTION_DOT":"0.00000127","RA_OF_ASC_NODE":"221.2795","CENTER_NAME":"EARTH","COUNTRY_CODE":"US","TLE_LINE2":"2 47658  53.0538 221.2795 0001520  76.2087 283.9071 15.06406547 57417"},{"MEAN_MOTION_DOT":"0.00021192","RA_OF_ASC_NODE":"101.1003","FILE":"3312023","INCLINATION":"53.0545","MEAN_ELEMENT_THEORY":"SGP4","TLE_LINE2":"2 47659  53.0545 101.1003 0001239  72.6774 349.4559 15.06370038  3600","CENTER_NAME":"EARTH","COUNTRY_CODE":"US","RCS_SIZE":"LARGE","MEAN_MOTION":"15.06370038","EPOCH":"2022-02-21T22:00:00.999936","PERIOD":"95.594","MEAN_MOTION_DDOT":"0.0000000000000","ECCENTRICITY":"0.00012390","OBJECT_TYPE":"PAYLOAD","REF_FRAME":"TEME","PERIAPSIS":"546.447","SITE":"AFETR","TLE_LINE1":"1 47659U 21012AR  22052.91667824  .00021192  00000-0  14385-2 0  9999","ARG_OF_PERICENTER":"72.6774","APOAPSIS":"548.163","EPHEMERIS_TYPE":"0","BSTAR":"0.00143850000000","CLASSIFICATION_TYPE":"U","NORAD_CAT_ID":"47659","DECAY_DATE":null,"OBJECT_NAME":"STARLINK-2043","REV_AT_EPOCH":"360","LAUNCH_DATE":"2021-02-16","ELEMENT_SET_NO":"999","MEAN_ANOMALY":"349.4559","OBJECT_ID":"2021-012AR","TIME_SYSTEM":"UTC","SEMIMAJOR_AXIS":"6925.440","GP_ID":"196571988"},{"RCS_SIZE":"LARGE","MEAN_MOTION":"15.06372493","PERIOD":"95.594","EPOCH":"2022-02-21T22:00:00.999936","FILE":"3312023","INCLINATION":"53.0545","MEAN_ELEMENT_THEORY":"SGP4","MEAN_MOTION_DOT":"0.00034781","RA_OF_ASC_NODE":"91.0984","TLE_LINE2":"2 47660  53.0545  91.0984 0001644  46.1076 236.0890 15.06372493  3592","COUNTRY_CODE":"US","CENTER_NAME":"EARTH","MEAN_ANOMALY":"236.0890","OBJECT_ID":"2021-012AS","TIME_SYSTEM":"UTC","SEMIMAJOR_AXIS":"6925.433","OBJECT_NAME":"STARLINK-2044","REV_AT_EPOCH":"359","LAUNCH_DATE":"2021-02-16","ELEMENT_SET_NO":"999","GP_ID":"196572237","REF_FRAME":"TEME","OBJECT_TYPE":"PAYLOAD","PERIAPSIS":"546.159","MEAN_MOTION_DDOT":"0.0000000000000","ECCENTRICITY":"0.00016440","EPHEMERIS_TYPE":"0","APOAPSIS":"548.436","BSTAR":"0.00234410000000","CLASSIFICATION_TYPE":"U","DECAY_DATE":null,"NORAD_CAT_ID":"47660","SITE":"AFETR","TLE_LINE1":"1 47660U 21012AS  22052.91667824  .00034781  00000-0  23441-2 0  9992","ARG_OF_PERICENTER":"46.1076"},{"RA_OF_ASC_NODE":"201.4288","MEAN_MOTION_DOT":"0.00000610","MEAN_ELEMENT_THEORY":"SGP4","INCLINATION":"53.0548","FILE":"3312023","COUNTRY_CODE":"US","CENTER_NAME":"EARTH","TLE_LINE2":"2 47661  53.0548 201.4288 0001437  76.7613 283.3536 15.06390000 57658","RCS_SIZE":"LARGE","PERIOD":"95.593","EPOCH":"2022-02-21T20:15:59.970240","MEAN_MOTION":"15.06390000","ECCENTRICITY":"0.00014370","MEAN_MOTION_DDOT":"0.0000000000000","PERIAPSIS":"546.249","OBJECT_TYPE":"PAYLOAD","REF_FRAME":"TEME","ARG_OF_PERICENTER":"76.7613","TLE_LINE1":"1 47661U 21012AT  22052.84444410  .00000610  00000-0  59837-4 0  9993","SITE":"AFETR","DECAY_DATE":null,"NORAD_CAT_ID":"47661","BSTAR":"0.00005983700000","CLASSIFICATION_TYPE":"U","APOAPSIS":"548.239","EPHEMERIS_TYPE":"0","ELEMENT_SET_NO":"999","LAUNCH_DATE":"2021-02-16","OBJECT_NAME":"STARLINK-2051","REV_AT_EPOCH":"5765","SEMIMAJOR_AXIS":"6925.379","OBJECT_ID":"2021-012AT","TIME_SYSTEM":"UTC","MEAN_ANOMALY":"283.3536","GP_ID":"196572486"},{"RCS_SIZE":"LARGE","MEAN_MOTION":"15.06408160","PERIOD":"95.592","EPOCH":"2022-02-21T19:48:05.876064","MEAN_MOTION_DOT":"0.00002029","RA_OF_ASC_NODE":"201.5235","MEAN_ELEMENT_THEORY":"SGP4","FILE":"3312023","INCLINATION":"53.0534","COUNTRY_CODE":"US","CENTER_NAME":"EARTH","TLE_LINE2":"2 47662  53.0534 201.5235 0001425  65.2290 294.8847 15.06408160 57679","ELEMENT_SET_NO":"999","REV_AT_EPOCH":"5767","OBJECT_NAME":"STARLINK-2052","LAUNCH_DATE":"2021-02-16","TIME_SYSTEM":"UTC","OBJECT_ID":"2021-012AU","SEMIMAJOR_AXIS":"6925.324","MEAN_ANOMALY":"294.8847","GP_ID":"196572741","ECCENTRICITY":"0.00014250","MEAN_MOTION_DDOT":"0.0000000000000","PERIAPSIS":"546.202","OBJECT_TYPE":"PAYLOAD","REF_FRAME":"TEME","ARG_OF_PERICENTER":"65.2290","SITE":"AFETR","TLE_LINE1":"1 47662U 21012AU  22052.82506801  .00002029  00000-0  15505-3 0  9994","BSTAR":"0.00015505000000","CLASSIFICATION_TYPE":"U","DECAY_DATE":null,"NORAD_CAT_ID":"47662","APOAPSIS":"548.175","EPHEMERIS_TYPE":"0"},{"PERIAPSIS":"546.264","OBJECT_TYPE":"PAYLOAD","REF_FRAME":"TEME","ECCENTRICITY":"0.00014410","MEAN_MOTION_DDOT":"0.0000000000000","CLASSIFICATION_TYPE":"U","BSTAR":"-0.00069909000000","NORAD_CAT_ID":"47663","DECAY_DATE":null,"APOAPSIS":"548.260","EPHEMERIS_TYPE":"0","ARG_OF_PERICENTER":"53.5597","TLE_LINE1":"1 47663U 21012AV  22052.91667824 -.00010675  00000-0 -69909-3 0  9993","SITE":"AFETR","OBJECT_ID":"2021-012AV","TIME_SYSTEM":"UTC","SEMIMAJOR_AXIS":"6925.397","MEAN_ANOMALY":"263.6748","ELEMENT_SET_NO":"999","OBJECT_NAME":"STARLINK-2053","REV_AT_EPOCH":"359","LAUNCH_DATE":"2021-02-16","GP_ID":"196571488","MEAN_ELEMENT_THEORY":"SGP4","FILE":"3312023","INCLINATION":"53.0554","MEAN_MOTION_DOT":"-0.00010675","RA_OF_ASC_NODE":"121.1172","COUNTRY_CODE":"US","CENTER_NAME":"EARTH","TLE_LINE2":"2 47663  53.0554 121.1172 0001441  53.5597 263.6748 15.06384253  3599","RCS_SIZE":"LARGE","MEAN_MOTION":"15.06384253","PERIOD":"95.593","EPOCH":"2022-02-21T22:00:00.999936"},{"FILE":"3312023","INCLINATION":"53.0536","MEAN_ELEMENT_THEORY":"SGP4","MEAN_MOTION_DOT":"-0.00001488","RA_OF_ASC_NODE":"202.1192","TLE_LINE2":"2 47664  53.0536 202.1192 0001561  69.1328 290.9828 15.06390755 57652","COUNTRY_CODE":"US","CENTER_NAME":"EARTH","RCS_SIZE":"LARGE","MEAN_MOTION":"15.06390755","EPOCH":"2022-02-21T16:38:22.759872","PERIOD":"95.593","OBJECT_TYPE":"PAYLOAD","REF_FRAME":"TEME","PERIAPSIS":"546.161","MEAN_MOTION_DDOT":"0.0000000000000","ECCENTRICITY":"0.00015610","APOAPSIS":"548.323","EPHEMERIS_TYPE":"0","CLASSIFICATION_TYPE":"U","BSTAR":"-0.00008104900000","DECAY_DATE":null,"NORAD_CAT_ID":"47664","SITE":"AFETR","TLE_LINE1":"1 47664U 21012AW  22052.69331898 -.00001488  00000-0 -81049-4 0  9990","ARG_OF_PERICENTER":"69.1328","MEAN_ANOMALY":"290.9828","TIME_SYSTEM":"UTC","OBJECT_ID":"2021-012AW","SEMIMAJOR_AXIS":"6925.377","REV_AT_EPOCH":"5765","OBJECT_NAME":"STARLINK-2054","LAUNCH_DATE":"2021-02-16","ELEMENT_SET_NO":"999","GP_ID":"196571737"}];
